CCSDS_OMM_VERS = 2.0
CREATION_DATE  = 
ORIGINATOR     = 

OBJECT_NAME    = STARLINK-36874
OBJECT_ID      = 2026-038W
CENTER_NAME    = EARTH
REF_FRAME      = TEME
TIME_SYSTEM    = UTC
MEAN_ELEMENT_THEORY = SGP/SGP4

EPOCH          = 2026-03-11T18:00:01.999296
MEAN_MOTION    = 15.83594383
ECCENTRICITY   = .0001332
INCLINATION    = 97.2682
RA_OF_ASC_NODE = 81.1941
ARG_OF_PERICENTER = 80.0137
MEAN_ANOMALY   = 288.1544

EPHEMERIS_TYPE = 0
CLASSIFICATION_TYPE = U
NORAD_CAT_ID   = 67981
ELEMENT_SET_NO = 999
REV_AT_EPOCH   = 353
BSTAR          = -.84994E-2
MEAN_MOTION_DOT = -.1620353E-1
MEAN_MOTION_DDOT = 0

CCSDS_OMM_VERS = 2.0
CREATION_DATE  = 
ORIGINATOR     = 

OBJECT_NAME    = STARLINK-36879
OBJECT_ID      = 2026-038X
CENTER_NAME    = EARTH
REF_FRAME      = TEME
TIME_SYSTEM    = UTC
MEAN_ELEMENT_THEORY = SGP/SGP4

EPOCH          = 2026-03-11T18:00:01.999296
MEAN_MOTION    = 15.83762023
ECCENTRICITY   = .0001291
INCLINATION    = 97.2676
RA_OF_ASC_NODE = 81.1965
ARG_OF_PERICENTER = 85.2248
MEAN_ANOMALY   = 288.8728

EPHEMERIS_TYPE = 0
CLASSIFICATION_TYPE = U
NORAD_CAT_ID   = 67982
ELEMENT_SET_NO = 999
REV_AT_EPOCH   = 353
BSTAR          = -.84545E-2
MEAN_MOTION_DOT = -.1624129E-1
MEAN_MOTION_DDOT = 0

CCSDS_OMM_VERS = 2.0
CREATION_DATE  = 
ORIGINATOR     = 

OBJECT_NAME    = STARLINK-36867
OBJECT_ID      = 2026-038Y
CENTER_NAME    = EARTH
REF_FRAME      = TEME
TIME_SYSTEM    = UTC
MEAN_ELEMENT_THEORY = SGP/SGP4

EPOCH          = 2026-03-11T18:00:01.999296
MEAN_MOTION    = 15.84096020
ECCENTRICITY   = .0001318
INCLINATION    = 97.2669
RA_OF_ASC_NODE = 81.2016
ARG_OF_PERICENTER = 81.5395
MEAN_ANOMALY   = 304.6276

EPHEMERIS_TYPE = 0
CLASSIFICATION_TYPE = U
NORAD_CAT_ID   = 67983
ELEMENT_SET_NO = 999
REV_AT_EPOCH   = 353
BSTAR          = -.82756E-2
MEAN_MOTION_DOT = -.1616469E-1
MEAN_MOTION_DDOT = 0

CCSDS_OMM_VERS = 2.0
CREATION_DATE  = 
ORIGINATOR     = 

OBJECT_NAME    = STARLINK-36266
OBJECT_ID      = 2026-038Z
CENTER_NAME    = EARTH
REF_FRAME      = TEME
TIME_SYSTEM    = UTC
MEAN_ELEMENT_THEORY = SGP/SGP4

EPOCH          = 2026-03-11T18:00:01.999296
MEAN_MOTION    = 15.83954522
ECCENTRICITY   = .0001371
INCLINATION    = 97.2672
RA_OF_ASC_NODE = 81.1995
ARG_OF_PERICENTER = 98.1288
MEAN_ANOMALY   = 282.6111

EPHEMERIS_TYPE = 0
CLASSIFICATION_TYPE = U
NORAD_CAT_ID   = 67984
ELEMENT_SET_NO = 999
REV_AT_EPOCH   = 350
BSTAR          = -.84004E-2
MEAN_MOTION_DOT = -.1628127E-1
MEAN_MOTION_DDOT = 0

CCSDS_OMM_VERS = 2.0
CREATION_DATE  = 
ORIGINATOR     = 

OBJECT_NAME    = STARLINK-36802
OBJECT_ID      = 2026-038AA
CENTER_NAME    = EARTH
REF_FRAME      = TEME
TIME_SYSTEM    = UTC
MEAN_ELEMENT_THEORY = SGP/SGP4

EPOCH          = 2026-03-11T18:00:01.999296
MEAN_MOTION    = 15.84226558
ECCENTRICITY   = .0001302
INCLINATION    = 97.2663
RA_OF_ASC_NODE = 81.2033
ARG_OF_PERICENTER = 84.7914
MEAN_ANOMALY   = 306.3214

EPHEMERIS_TYPE = 0
CLASSIFICATION_TYPE = U
NORAD_CAT_ID   = 67985
ELEMENT_SET_NO = 999
REV_AT_EPOCH   = 353
BSTAR          = -.81624E-2
MEAN_MOTION_DOT = -.1605848E-1
MEAN_MOTION_DDOT = 0

CCSDS_OMM_VERS = 2.0
CREATION_DATE  = 
ORIGINATOR     = 

OBJECT_NAME    = STARLINK-36535
OBJECT_ID      = 2026-039A
CENTER_NAME    = EARTH
REF_FRAME      = TEME
TIME_SYSTEM    = UTC
MEAN_ELEMENT_THEORY = SGP/SGP4

EPOCH          = 2026-03-11T18:00:01.999296
MEAN_MOTION    = 15.81973258
ECCENTRICITY   = .0001332
INCLINATION    = 42.9993
RA_OF_ASC_NODE = 42.3106
ARG_OF_PERICENTER = 260.7235
MEAN_ANOMALY   = 12.9533

EPHEMERIS_TYPE = 0
CLASSIFICATION_TYPE = U
NORAD_CAT_ID   = 67986
ELEMENT_SET_NO = 999
REV_AT_EPOCH   = 320
BSTAR          = .71956E-4
MEAN_MOTION_DOT = .14614E-3
MEAN_MOTION_DDOT = 0

CCSDS_OMM_VERS = 2.0
CREATION_DATE  = 
ORIGINATOR     = 

OBJECT_NAME    = STARLINK-36744
OBJECT_ID      = 2026-039B
CENTER_NAME    = EARTH
REF_FRAME      = TEME
TIME_SYSTEM    = UTC
MEAN_ELEMENT_THEORY = SGP/SGP4

EPOCH          = 2026-03-11T18:00:01.999296
MEAN_MOTION    = 15.81972316
ECCENTRICITY   = .0001879
INCLINATION    = 42.9994
RA_OF_ASC_NODE = 42.2991
ARG_OF_PERICENTER = 242.4812
MEAN_ANOMALY   = 35.4659

EPHEMERIS_TYPE = 0
CLASSIFICATION_TYPE = U
NORAD_CAT_ID   = 67987
ELEMENT_SET_NO = 999
REV_AT_EPOCH   = 320
BSTAR          = .13886E-3
MEAN_MOTION_DOT = .28744E-3
MEAN_MOTION_DDOT = 0

CCSDS_OMM_VERS = 2.0
CREATION_DATE  = 
ORIGINATOR     = 

OBJECT_NAME    = STARLINK-36734
OBJECT_ID      = 2026-039C
CENTER_NAME    = EARTH
REF_FRAME      = TEME
TIME_SYSTEM    = UTC
MEAN_ELEMENT_THEORY = SGP/SGP4

EPOCH          = 2026-03-11T18:00:01.999296
MEAN_MOTION    = 15.77188741
ECCENTRICITY   = .0001494
INCLINATION    = 42.9994
RA_OF_ASC_NODE = 42.3135
ARG_OF_PERICENTER = 256.7885
MEAN_ANOMALY   = 15.3606

EPHEMERIS_TYPE = 0
CLASSIFICATION_TYPE = U
NORAD_CAT_ID   = 67988
ELEMENT_SET_NO = 999
REV_AT_EPOCH   = 320
BSTAR          = -.12978E-1
MEAN_MOTION_DOT = -.1907539E-1
MEAN_MOTION_DDOT = 0

CCSDS_OMM_VERS = 2.0
CREATION_DATE  = 
ORIGINATOR     = 

OBJECT_NAME    = STARLINK-36957
OBJECT_ID      = 2026-039D
CENTER_NAME    = EARTH
REF_FRAME      = TEME
TIME_SYSTEM    = UTC
MEAN_ELEMENT_THEORY = SGP/SGP4

EPOCH          = 2026-03-11T18:00:01.999296
MEAN_MOTION    = 15.81937506
ECCENTRICITY   = .0001641
INCLINATION    = 42.9993
RA_OF_ASC_NODE = 42.2769
ARG_OF_PERICENTER = 267.9508
MEAN_ANOMALY   = 18.5488

EPHEMERIS_TYPE = 0
CLASSIFICATION_TYPE = U
NORAD_CAT_ID   = 67989
ELEMENT_SET_NO = 999
REV_AT_EPOCH   = 320
BSTAR          = .43572E-3
MEAN_MOTION_DOT = .91854E-3
MEAN_MOTION_DDOT = 0

CCSDS_OMM_VERS = 2.0
CREATION_DATE  = 
ORIGINATOR     = 

OBJECT_NAME    = STARLINK-36951
OBJECT_ID      = 2026-039E
CENTER_NAME    = EARTH
REF_FRAME      = TEME
TIME_SYSTEM    = UTC
MEAN_ELEMENT_THEORY = SGP/SGP4

EPOCH          = 2026-03-11T06:00:02.000160
MEAN_MOTION    = 15.81962755
ECCENTRICITY   = .00016025
INCLINATION    = 42.9994
RA_OF_ASC_NODE = 45.3337
ARG_OF_PERICENTER = 276.1730
MEAN_ANOMALY   = 43.5111

EPHEMERIS_TYPE = 0
CLASSIFICATION_TYPE = U
NORAD_CAT_ID   = 67990
ELEMENT_SET_NO = 999
REV_AT_EPOCH   = 312
BSTAR          = .34044555E-3
MEAN_MOTION_DOT = .71568E-3
MEAN_MOTION_DDOT = 0

CCSDS_OMM_VERS = 2.0
CREATION_DATE  = 
ORIGINATOR     = 

OBJECT_NAME    = STARLINK-36941
OBJECT_ID      = 2026-039F
CENTER_NAME    = EARTH
REF_FRAME      = TEME
TIME_SYSTEM    = UTC
MEAN_ELEMENT_THEORY = SGP/SGP4

EPOCH          = 2026-03-11T18:00:01.999296
MEAN_MOTION    = 15.76840868
ECCENTRICITY   = .0001451
INCLINATION    = 42.9993
RA_OF_ASC_NODE = 42.2836
ARG_OF_PERICENTER = 251.1700
MEAN_ANOMALY   = 32.3052

EPHEMERIS_TYPE = 0
CLASSIFICATION_TYPE = U
NORAD_CAT_ID   = 67991
ELEMENT_SET_NO = 999
REV_AT_EPOCH   = 320
BSTAR          = -.1321E-1
MEAN_MOTION_DOT = -.1910871E-1
MEAN_MOTION_DDOT = 0

CCSDS_OMM_VERS = 2.0
CREATION_DATE  = 
ORIGINATOR     = 

OBJECT_NAME    = STARLINK-36950
OBJECT_ID      = 2026-039G
CENTER_NAME    = EARTH
REF_FRAME      = TEME
TIME_SYSTEM    = UTC
MEAN_ELEMENT_THEORY = SGP/SGP4

EPOCH          = 2026-03-11T18:00:01.999296
MEAN_MOTION    = 15.82225810
ECCENTRICITY   = .0001458
INCLINATION    = 42.9996
RA_OF_ASC_NODE = 42.2441
ARG_OF_PERICENTER = 246.6959
MEAN_ANOMALY   = 52.5930

EPHEMERIS_TYPE = 0
CLASSIFICATION_TYPE = U
NORAD_CAT_ID   = 67992
ELEMENT_SET_NO = 999
REV_AT_EPOCH   = 320
BSTAR          = -.94255E-2
MEAN_MOTION_DOT = -.1768369E-1
MEAN_MOTION_DDOT = 0

