STARLINK-36874          
1 67981U 26038W   26070.75002314 -.01620353  00000+0 -84994-2 0  9994
2 67981  97.2682  81.1941 0001332  80.0137 288.1544 15.83594383  3531
STARLINK-36879          
1 67982U 26038X   26070.75002314 -.01624129  00000+0 -84545-2 0  9992
2 67982  97.2676  81.1965 0001291  85.2248 288.8728 15.83762023  3534
STARLINK-36867          
1 67983U 26038Y   26070.75002314 -.01616469  00000+0 -82756-2 0  9993
2 67983  97.2669  81.2016 0001318  81.5395 304.6276 15.84096020  3530
STARLINK-36266          
1 67984U 26038Z   26070.75002314 -.01628127  00000+0 -84004-2 0  9996
2 67984  97.2672  81.1995 0001371  98.1288 282.6111 15.83954522  3503
STARLINK-36802          
1 67985U 26038AA  26070.75002314 -.01605848  00000+0 -81624-2 0  9997
2 67985  97.2663  81.2033 0001302  84.7914 306.3214 15.84226558  3532
STARLINK-36535          
1 67986U 26039A   26070.75002314  .00014614  00000+0  71956-4 0  9990
2 67986  42.9993  42.3106 0001332 260.7235  12.9533 15.81973258  3201
STARLINK-36744          
1 67987U 26039B   26070.75002314  .00028744  00000+0  13886-3 0  9997
2 67987  42.9994  42.2991 0001879 242.4812  35.4659 15.81972316  3201
STARLINK-36734          
1 67988U 26039C   26070.75002314 -.01907539  00000+0 -12978-1 0  9998
2 67988  42.9994  42.3135 0001494 256.7885  15.3606 15.77188741  3209
STARLINK-36957          
1 67989U 26039D   26070.75002314  .00091854  00000+0  43572-3 0  9996
2 67989  42.9993  42.2769 0001641 267.9508  18.5488 15.81937506  3200
STARLINK-36951          
1 67990U 26039E   26070.25002315  .00071568  00000+0  34045-3 0  9999
2 67990  42.9994  45.3337 0001602 276.1730  43.5111 15.81962755  3120
STARLINK-36941          
1 67991U 26039F   26070.75002314 -.01910871  00000+0 -13210-1 0  9995
2 67991  42.9993  42.2836 0001451 251.1700  32.3052 15.76840868  3205
STARLINK-36950          
1 67992U 26039G   26070.75002314 -.01768369  00000+0 -94255-2 0  9998
2 67992  42.9996  42.2441 0001458 246.6959  52.5930 15.82225810  3203
